{"type": "FeatureCollection", "features": [ {"type": "Feature", "properties": {"norad_id": 35480, "name": "IRIDIUM 33 DEB", "group": "iridium-33-debris", "lat": -49.878104900131945, "lon": 24.115423904994007, "alt_km": 744.6545662239723, "timestamp": "2025-12-04T13:52:00.827210+00:00", "meta": {"OBJECT_NAME": "IRIDIUM 33 DEB", "OBJECT_ID": "1997-051QA", "EPOCH": "2025-12-01T21:29:27.496896", "MEAN_MOTION": 14.49686619, "ECCENTRICITY": 0.00155495, "INCLINATION": 86.3575, "RA_OF_ASC_NODE": 29.6125, "ARG_OF_PERICENTER": 136.7189, "MEAN_ANOMALY": 223.524, "EPHEMERIS_TYPE": 0, "CLASSIFICATION_TYPE": "U", "NORAD_CAT_ID": 35480, "ELEMENT_SET_NO": 999, "REV_AT_EPOCH": 86874, "BSTAR": 0.000651702, "MEAN_MOTION_DOT": 2.53e-05, "MEAN_MOTION_DDOT": 0}, "tle": {"line1": "1 35480U 97051QA  25335.89545714  .00002530  00000+0  65170-3 0  9994", "line2": "2 35480  86.3575  29.6125 0015549 136.7189 223.5240 14.49686619868745"}}, "geometry": {"type": "Point", "coordinates": [24.115423904994007, -49.878104900131945]}}, {"type": "Feature", "properties": {"norad_id": 35484, "name": "IRIDIUM 33 DEB", "group": "iridium-33-debris", "lat": 48.718497522352514, "lon": 172.40859649731698, "alt_km": 555.4837028872962, "timestamp": "2025-12-04T13:52:00.827227+00:00", "meta": {"OBJECT_NAME": "IRIDIUM 33 DEB", "OBJECT_ID": "1997-051QE", "EPOCH": "2025-12-01T19:32:14.692416", "MEAN_MOTION": 14.97587734, "ECCENTRICITY": 0.00218288, "INCLINATION": 86.3628, "RA_OF_ASC_NODE": 357.8533, "ARG_OF_PERICENTER": 162.6444, "MEAN_ANOMALY": 197.5538, "EPHEMERIS_TYPE": 0, "CLASSIFICATION_TYPE": "U", "NORAD_CAT_ID": 35484, "ELEMENT_SET_NO": 999, "REV_AT_EPOCH": 61852, "BSTAR": 0.0025030806, "MEAN_MOTION_DOT": 0.00029486, "MEAN_MOTION_DDOT": 0}, "tle": {"line1": "1 35484U 97051QE  25335.81405894  .00029486  00000+0  25031-2 0  9994", "line2": "2 35484  86.3628 357.8533 0021828 162.6444 197.5538 14.97587734618526"}}, "geometry": {"type": "Point", "coordinates": [172.40859649731698, 48.718497522352514]}}, {"type": "Feature", "properties": {"norad_id": 35488, "name": "IRIDIUM 33 DEB", "group": "iridium-33-debris", "lat": -28.941054091762414, "lon": -57.39740465485921, "alt_km": 629.3930520020967, "timestamp": "2025-12-04T13:52:00.827243+00:00", "meta": {"OBJECT_NAME": "IRIDIUM 33 DEB", "OBJECT_ID": "1997-051QJ", "EPOCH": "2025-12-03T15:19:15.802176", "MEAN_MOTION": 14.8268507, "ECCENTRICITY": 0.00306986, "INCLINATION": 86.3233, "RA_OF_ASC_NODE": 305.0732, "ARG_OF_PERICENTER": 71.607, "MEAN_ANOMALY": 288.8486, "EPHEMERIS_TYPE": 0, "CLASSIFICATION_TYPE": "U", "NORAD_CAT_ID": 35488, "ELEMENT_SET_NO": 999, "REV_AT_EPOCH": 88131, "BSTAR": 0.0020184012, "MEAN_MOTION_DOT": 0.00016455, "MEAN_MOTION_DDOT": 0}, "tle": {"line1": "1 35488U 97051QJ  25337.63837734  .00016455  00000+0  20184-2 0  9998", "line2": "2 35488  86.3233 305.0732 0030698  71.6070 288.8486 14.82685070881318"}}, "geometry": {"type": "Point", "coordinates": [-57.39740465485921, -28.941054091762414]}}, {"type": "Feature", "properties": {"norad_id": 35616, "name": "IRIDIUM 33 DEB", "group": "iridium-33-debris", "lat": 12.83307250872272, "lon": 168.6585592194943, "alt_km": 620.7585480896769, "timestamp": "2025-12-04T13:52:00.827254+00:00", "meta": {"OBJECT_NAME": "IRIDIUM 33 DEB", "OBJECT_ID": "1997-051QN", "EPOCH": "2025-12-01T18:38:49.911648", "MEAN_MOTION": 14.81359224, "ECCENTRICITY": 0.00086191, "INCLINATION": 86.3548, "RA_OF_ASC_NODE": 350.7677, "ARG_OF_PERICENTER": 204.4295, "MEAN_ANOMALY": 155.6519, "EPHEMERIS_TYPE": 0, "CLASSIFICATION_TYPE": "U", "NORAD_CAT_ID": 35616, "ELEMENT_SET_NO": 999, "REV_AT_EPOCH": 87412, "BSTAR": 0.0016385024, "MEAN_MOTION_DOT": 0.00012841, "MEAN_MOTION_DDOT": 0}, "tle": {"line1": "1 35616U 97051QN  25335.77696657  .00012841  00000+0  16385-2 0  9994", "line2": "2 35616  86.3548 350.7677 0008619 204.4295 155.6519 14.81359224874125"}}, "geometry": {"type": "Point", "coordinates": [168.6585592194943, 12.83307250872272]}}, {"type": "Feature", "properties": {"norad_id": 35618, "name": "IRIDIUM 33 DEB", "group": "iridium-33-debris", "lat": 74.53798993691838, "lon": 10.445385645515541, "alt_km": 691.9271825800497, "timestamp": "2025-12-04T13:52:00.827265+00:00", "meta": {"OBJECT_NAME": "IRIDIUM 33 DEB", "OBJECT_ID": "1997-051QQ", "EPOCH": "2025-11-27T19:27:47.606688", "MEAN_MOTION": 14.52216193, "ECCENTRICITY": 0.00308317, "INCLINATION": 86.3414, "RA_OF_ASC_NODE": 0.0275, "ARG_OF_PERICENTER": 70.0508, "MEAN_ANOMALY": 290.4015, "EPHEMERIS_TYPE": 0, "CLASSIFICATION_TYPE": "U", "NORAD_CAT_ID": 35618, "ELEMENT_SET_NO": 999, "REV_AT_EPOCH": 65177, "BSTAR": 0.00046503481, "MEAN_MOTION_DOT": 1.919e-05, "MEAN_MOTION_DDOT": 0}, "tle": {"line1": "1 35618U 97051QQ  25331.81096767  .00001919  00000+0  46503-3 0  9993", "line2": "2 35618  86.3414   0.0275 0030831  70.0508 290.4015 14.52216193651771"}}, "geometry": {"type": "Point", "coordinates": [10.445385645515541, 74.53798993691838]}}, {"type": "Feature", "properties": {"norad_id": 35620, "name": "IRIDIUM 33 DEB", "group": "iridium-33-debris", "lat": 58.89880376658104, "lon": 34.88452215242913, "alt_km": 860.612048435717, "timestamp": "2025-12-04T13:52:00.827276+00:00", "meta": {"OBJECT_NAME": "IRIDIUM 33 DEB", "OBJECT_ID": "1997-051QS", "EPOCH": "2025-12-03T22:15:44.389440", "MEAN_MOTION": 14.37533954, "ECCENTRICITY": 0.01447571, "INCLINATION": 86.3881, "RA_OF_ASC_NODE": 221.1686, "ARG_OF_PERICENTER": 287.9324, "MEAN_ANOMALY": 70.6136, "EPHEMERIS_TYPE": 0, "CLASSIFICATION_TYPE": "U", "NORAD_CAT_ID": 35620, "ELEMENT_SET_NO": 999, "REV_AT_EPOCH": 59839, "BSTAR": 0.012608603, "MEAN_MOTION_DOT": 0.00042859, "MEAN_MOTION_DDOT": 0}, "tle": {"line1": "1 35620U 97051QS  25337.92759710  .00042859  00000+0  12609-1 0  9994", "line2": "2 35620  86.3881 221.1686 0144757 287.9324  70.6136 14.37533954598392"}}, "geometry": {"type": "Point", "coordinates": [34.88452215242913, 58.89880376658104]}}, {"type": "Feature", "properties": {"norad_id": 35622, "name": "IRIDIUM 33 DEB", "group": "iridium-33-debris", "lat": 67.49522743375532, "lon": -83.16329148236251, "alt_km": 548.7387530726401, "timestamp": "2025-12-04T13:52:00.827286+00:00", "meta": {"OBJECT_NAME": "IRIDIUM 33 DEB", "OBJECT_ID": "1997-051QU", "EPOCH": "2025-12-03T06:17:03.782976", "MEAN_MOTION": 15.0277191, "ECCENTRICITY": 0.0010538, "INCLINATION": 86.2056, "RA_OF_ASC_NODE": 268.2648, "ARG_OF_PERICENTER": 2.3967, "MEAN_ANOMALY": 150.3951, "EPHEMERIS_TYPE": 0, "CLASSIFICATION_TYPE": "U", "NORAD_CAT_ID": 35622, "ELEMENT_SET_NO": 999, "REV_AT_EPOCH": 87217, "BSTAR": 0.0062141, "MEAN_MOTION_DOT": 0.00084066, "MEAN_MOTION_DDOT": 0}, "tle": {"line1": "1 35622U 97051QU  25337.26184934  .00084066  00000+0  62141-2 0  9996", "line2": "2 35622  86.2056 268.2648 0010538   2.3967 150.3951 15.02771910872179"}}, "geometry": {"type": "Point", "coordinates": [-83.16329148236251, 67.49522743375532]}}, {"type": "Feature", "properties": {"norad_id": 35628, "name": "IRIDIUM 33 DEB", "group": "iridium-33-debris", "lat": -65.46964583159087, "lon": -159.26183519747227, "alt_km": 681.5451655843326, "timestamp": "2025-12-04T13:52:00.827296+00:00", "meta": {"OBJECT_NAME": "IRIDIUM 33 DEB", "OBJECT_ID": "1997-051RA", "EPOCH": "2025-12-02T19:50:02.046048", "MEAN_MOTION": 14.67345428, "ECCENTRICITY": 0.00116325, "INCLINATION": 86.3582, "RA_OF_ASC_NODE": 13.4962, "ARG_OF_PERICENTER": 17.351, "MEAN_ANOMALY": 342.81, "EPHEMERIS_TYPE": 0, "CLASSIFICATION_TYPE": "U", "NORAD_CAT_ID": 35628, "ELEMENT_SET_NO": 999, "REV_AT_EPOCH": 86301, "BSTAR": 0.0016793576, "MEAN_MOTION_DOT": 9.517e-05, "MEAN_MOTION_DDOT": 0}, "tle": {"line1": "1 35628U 97051RA  25336.82641257  .00009517  00000+0  16794-2 0  9990", "line2": "2 35628  86.3582  13.4962 0011632  17.3510 342.8100 14.67345428863013"}}, "geometry": {"type": "Point", "coordinates": [-159.26183519747227, -65.46964583159087]}}, {"type": "Feature", "properties": {"norad_id": 35631, "name": "IRIDIUM 33 DEB", "group": "iridium-33-debris", "lat": 14.122948881646378, "lon": 25.406013561966944, "alt_km": 743.5821453329436, "timestamp": "2025-12-04T13:52:00.827307+00:00", "meta": {"OBJECT_NAME": "IRIDIUM 33 DEB", "OBJECT_ID": "1997-051RD", "EPOCH": "2025-12-03T09:41:09.224736", "MEAN_MOTION": 14.47269337, "ECCENTRICITY": 0.00180664, "INCLINATION": 86.3684, "RA_OF_ASC_NODE": 24.9956, "ARG_OF_PERICENTER": 146.4986, "MEAN_ANOMALY": 234.0079, "EPHEMERIS_TYPE": 0, "CLASSIFICATION_TYPE": "U", "NORAD_CAT_ID": 35631, "ELEMENT_SET_NO": 999, "REV_AT_EPOCH": 87062, "BSTAR": 0.0005063782, "MEAN_MOTION_DOT": 1.875e-05, "MEAN_MOTION_DDOT": 0}, "tle": {"line1": "1 35631U 97051RD  25337.40357899  .00001875  00000+0  50638-3 0  9990", "line2": "2 35631  86.3684  24.9956 0018066 146.4986 234.0079 14.47269337870623"}}, "geometry": {"type": "Point", "coordinates": [25.406013561966944, 14.122948881646378]}}, {"type": "Feature", "properties": {"norad_id": 35680, "name": "IRIDIUM 33 DEB", "group": "iridium-33-debris", "lat": 43.72704211075524, "lon": 28.875275468590214, "alt_km": 835.0691217843678, "timestamp": "2025-12-04T13:52:00.827317+00:00", "meta": {"OBJECT_NAME": "IRIDIUM 33 DEB", "OBJECT_ID": "1997-051RJ", "EPOCH": "2025-12-01T22:00:09.279648", "MEAN_MOTION": 14.20616647, "ECCENTRICITY": 0.01501261, "INCLINATION": 86.103, "RA_OF_ASC_NODE": 26.3138, "ARG_OF_PERICENTER": 313.2693, "MEAN_ANOMALY": 168.1986, "EPHEMERIS_TYPE": 0, "CLASSIFICATION_TYPE": "U", "NORAD_CAT_ID": 35680, "ELEMENT_SET_NO": 999, "REV_AT_EPOCH": 60547, "BSTAR": 0.0036692718, "MEAN_MOTION_DOT": 8.864e-05, "MEAN_MOTION_DDOT": 0}, "tle": {"line1": "1 35680U 97051RJ  25335.91677407  .00008864  00000+0  36693-2 0  9997", "line2": "2 35680  86.1030  26.3138 0150126 313.2693 168.1986 14.20616647605475"}}, "geometry": {"type": "Point", "coordinates": [28.875275468590214, 43.72704211075524]}}]}